[{"OBJECT_NAME":"STARLINK-3735","OBJECT_ID":"2022-029AE","EPOCH":"2026-03-09T09:54:38.408256","MEAN_MOTION":15.0883316,"ECCENTRICITY":0.00014655,"INCLINATION":53.2171,"RA_OF_ASC_NODE":80.3624,"ARG_OF_PERICENTER":68.6524,"MEAN_ANOMALY":291.4625,"EPHEMERIS_TYPE":0,"CLASSIFICATION_TYPE":"U","NORAD_CAT_ID":52116,"ELEMENT_SET_NO":999,"REV_AT_EPOCH":22074,"BSTAR":9.5846924e-5,"MEAN_MOTION_DOT":1.238e-5,"MEAN_MOTION_DDOT":0},{"OBJECT_NAME":"COSMOS 2251 DEB","OBJECT_ID":"1993-036ZW","EPOCH":"2026-03-09T08:08:26.165472","MEAN_MOTION":15.02749495,"ECCENTRICITY":0.00499096,"INCLINATION":74.0135,"RA_OF_ASC_NODE":183.9715,"ARG_OF_PERICENTER":290.3808,"MEAN_ANOMALY":69.2023,"EPHEMERIS_TYPE":0,"CLASSIFICATION_TYPE":"U","NORAD_CAT_ID":34752,"ELEMENT_SET_NO":999,"REV_AT_EPOCH":91149,"BSTAR":0.001245658,"MEAN_MOTION_DOT":0.00017109,"MEAN_MOTION_DDOT":0}]
